PROBA-1                 
1 26958U 01049B   22323.48103857  .00000805  00000+0  72180-4 0  9996
2 26958  97.8441 283.5281 0070522 185.8944 174.1456 14.96881958147660
BIRD 2                  
1 26959U 01049C   22323.56002115  .00018037  00000+0  33164-3 0  9995
2 26959  97.7635  66.3024 0006410 165.3315 194.8122 15.49258810477150
CUTE-1 (CO-55)          
1 27844U 03031E   22323.45353682  .00000275  00000+0  14253-3 0  9991
2 27844  98.6802 328.8193 0010141  19.4600 340.6963 14.22542303  5913
CUBESAT XI-IV (CO-57)   
1 27848U 03031J   22323.46534005  .00000234  00000+0  12538-3 0  9995
2 27848  98.6843 329.3148 0010289  33.4339 326.7487 14.22086792  5692
GENESIS 1               
1 29252U 06029A   22323.20698641  .00005569  00000+0  24193-3 0  9991
2 29252  64.5210 282.4152 0050397 239.2103 120.4057 15.22243165902515
FALCONSAT-3             
1 30776U 07006E   22323.29574557  .00122054  00000+0  85103-3 0  9995
2 30776  35.4269 315.4006 0006850 193.4537 166.6019 15.72949614873784
GENESIS 2               
1 31789U 07028A   22323.45998754  .00005539  00000+0  24642-3 0  9990
2 31789  64.4960 325.1686 0058596 291.1723  68.3146 15.21043037849463
APRIZESAT 4             
1 35684U 09041D   22323.28914481  .00000568  00000+0  81819-4 0  9998
2 35684  98.3047 342.2148 0045903 213.6637 146.1656 14.79838437717965
APRIZESAT 3             
1 35686U 09041F   22323.09125841  .00000748  00000+0  83740-4 0  9998
2 35686  98.1035  53.1840 0072497  41.7551 318.9165 14.88251382721600
PROBA-2                 
1 36037U 09059B   22323.27331145  .00000219  00000+0  63383-4 0  9998
2 36037  98.2220 146.9790 0013331 356.9798   3.1315 14.53331611691746
APRIZESAT 5             
1 37792U 11044E   22323.08428513  .00000585  00000+0  91170-4 0  9990
2 37792  98.3005 202.8734 0056444 230.5821 129.0384 14.75962490605808
APRIZESAT 6             
1 37793U 11044F   22323.42147149  .00000600  00000+0  10088-3 0  9998
2 37793  98.3793 180.6060 0045295 285.0211 198.1103 14.72949918604675
TET-1                   
1 38710U 12039D   22322.14595142  .13255880  26334-5  16468-3 0  9999
2 38710  97.4692  57.2581 0008692 273.6939  86.3371 16.49472070581732
PROBA-V                 
1 39159U 13021A   22323.33306828  .00000039  00000+0  35458-4 0  9999
2 39159  98.3419 351.3044 0004290  14.5566 345.5736 14.23060333495359
STPSAT-3                
1 39380U 13064A   22322.97576658  .00045628  00000+0  62645-3 0  9991
2 39380  40.4961 181.3659 0010976 323.4760  36.5311 15.56413130503264
APRIZESAT 7             
1 39416U 13066A   22323.37354090  .00000896  00000+0  11037-3 0  9999
2 39416  97.5923 295.9318 0039721 205.6336 154.2911 14.84752549487027
APRIZESAT 8             
1 39425U 13066K   22323.36671249  .00000838  00000+0  11031-3 0  9996
2 39425  97.6489 287.6547 0049686 252.8144 106.7627 14.81877085485900
BUGSAT-1 (TITA)         
1 40014U 14033E   22323.54096375  .00001562  00000+0  13887-3 0  9994
2 40014  98.1465 328.3839 0029174 243.8027 116.0192 14.97414078459349
SAUDISAT 4              
1 40016U 14033G   22323.24425329  .00000478  00000+0  75698-4 0  9992
2 40016  97.6355 149.5770 0048008   0.9699 359.1596 14.75710141453229
APRIZESAT 9             
1 40018U 14033J   22323.42868655  .00000474  00000+0  83018-4 0  9998
2 40018  97.7287 125.8467 0072240  76.2779 284.6457 14.70432996451428
APRIZESAT 10            
1 40019U 14033K   22323.42287512  .00000551  00000+0  10031-3 0  9996
2 40019  97.7874 115.8458 0084890 121.4043 239.5501 14.67464421450524
TDS 1                   
1 40076U 14037H   22323.38875208  .00002469  00000+0  28687-3 0  9999
2 40076  98.3669 204.4693 0005656 298.6170  61.4475 14.86355762452716
TIANTUO 2               
1 40144U 14053B   22323.40733889  .00006185  00000+0  15769-3 0  9990
2 40144  97.1823  40.3405 0010484   8.8941  56.5142 15.39830709458924
TECHNOSAT               
1 42829U 17042E   22323.00164032  .00001526  00000+0  15436-3 0  9992
2 42829  97.4014 168.0165 0013049 204.7292 155.3304 14.92296637291138
FLYING LAPTOP           
1 42831U 17042G   22323.52683300  .00001378  00000+0  14043-3 0  9994
2 42831  97.4034 168.8505 0013123 203.0837 156.9830 14.92127713291217
HAWK-A                  
1 43765U 18099H   22323.38311354  .00000988  00000+0  89152-4 0  9995
2 43765  97.6015  27.3781 0015765 110.6658 249.6257 14.97649451216323
HAWK-B                  
1 43794U 18099AN  22322.91578545  .00001781  00000+0  15671-3 0  9998
2 43794  97.6015  26.9231 0015789 112.1875 248.1024 14.97653017216244
HAWK-C                  
1 43799U 18099AT  22323.24966062  .00002020  00000+0  17706-3 0  9993
2 43799  97.6014  27.1539 0015734 110.8955 249.3953 14.97657106217042
SALSAT                  
1 46495U 20068K   22323.22702361  .00002348  00000+0  16794-3 0  9995
2 46495  97.7456 264.7535 0018156 110.1725 250.1456 15.05322244117468
